[{"OBJECT_NAME":"STARLINK-6029","OBJECT_ID":"2023-078AN","EPOCH":"2026-03-09T23:24:27.768096","MEAN_MOTION":14.98329288,"ECCENTRICITY":0.00028402,"INCLINATION":70.0008,"RA_OF_ASC_NODE":343.7116,"ARG_OF_PERICENTER":268.0414,"MEAN_ANOMALY":92.042,"EPHEMERIS_TYPE":0,"CLASSIFICATION_TYPE":"U","NORAD_CAT_ID":56803,"ELEMENT_SET_NO":999,"REV_AT_EPOCH":15272,"BSTAR":-3.8886079e-5,"MEAN_MOTION_DOT":-5.57e-6,"MEAN_MOTION_DDOT":0},{"OBJECT_NAME":"CENTAURI-8","OBJECT_ID":"2025-009DK","EPOCH":"2026-03-09T17:25:58.526112","MEAN_MOTION":14.9722833,"ECCENTRICITY":0.00030201,"INCLINATION":97.7096,"RA_OF_ASC_NODE":150.1876,"ARG_OF_PERICENTER":109.5881,"MEAN_ANOMALY":250.5667,"EPHEMERIS_TYPE":0,"CLASSIFICATION_TYPE":"U","NORAD_CAT_ID":62714,"ELEMENT_SET_NO":999,"REV_AT_EPOCH":6259,"BSTAR":0.00038891127,"MEAN_MOTION_DOT":4.445e-5,"MEAN_MOTION_DDOT":0}]
